<?xml version="1.0" encoding="UTF-8" standalone="no" ?>
<gpx xmlns="http://www.topografix.com/GPX/1/1" xmlns:xsi="http://www.w3.org/2001/XMLSchema-instance" xsi:schemaLocation="http://www.topografix.com/GPX/1/1 http://www.topografix.com/GPX/1/1/gpx.xsd" version="1.1" creator="VisuGPX - https://www.visugpx.com">
  <metadata>
    <name>marathon de Nantes</name>
    <desc><![CDATA[17 avril 2016]]></desc>
  </metadata>
  <trk>
    <name><![CDATA[--Nantes-- OR-5556175:Marathon de Nantes 2016-]]></name>
    <trkseg>
      <trkpt lat="47.21808" lon="-1.55199">
        <ele>22</ele>
        <time>2016-02-14T14:56:44Z</time>
      </trkpt>
      <trkpt lat="47.21796" lon="-1.55286">
        <ele>20</ele>
        <time>2016-02-14T14:58:44Z</time>
      </trkpt>
      <trkpt lat="47.21775" lon="-1.55549">
        <ele>13</ele>
        <time>2016-02-14T15:00:44Z</time>
      </trkpt>
      <trkpt lat="47.2178" lon="-1.55695">
        <ele>12</ele>
        <time>2016-02-14T15:02:44Z</time>
      </trkpt>
      <trkpt lat="47.21791" lon="-1.55714">
        <ele>13</ele>
        <time>2016-02-14T15:04:44Z</time>
      </trkpt>
      <trkpt lat="47.21896" lon="-1.55679">
        <ele>13</ele>
        <time>2016-02-14T15:06:44Z</time>
      </trkpt>
      <trkpt lat="47.2195" lon="-1.55598">
        <ele>12</ele>
        <time>2016-02-14T15:08:44Z</time>
      </trkpt>
      <trkpt lat="47.22005" lon="-1.55488">
        <ele>12</ele>
        <time>2016-02-14T15:10:44Z</time>
      </trkpt>
      <trkpt lat="47.22034" lon="-1.55406">
        <ele>13</ele>
        <time>2016-02-14T15:12:44Z</time>
      </trkpt>
      <trkpt lat="47.22068" lon="-1.55333">
        <ele>13</ele>
        <time>2016-02-14T15:14:44Z</time>
      </trkpt>
      <trkpt lat="47.22172" lon="-1.55145">
        <ele>14</ele>
        <time>2016-02-14T15:16:44Z</time>
      </trkpt>
      <trkpt lat="47.22288" lon="-1.5524">
        <ele>9</ele>
        <time>2016-02-14T15:18:44Z</time>
      </trkpt>
      <trkpt lat="47.22287" lon="-1.55343">
        <ele>7</ele>
        <time>2016-02-14T15:20:44Z</time>
      </trkpt>
      <trkpt lat="47.22315" lon="-1.55407">
        <ele>10</ele>
        <time>2016-02-14T15:22:44Z</time>
      </trkpt>
      <trkpt lat="47.22369" lon="-1.55356">
        <ele>7</ele>
        <time>2016-02-14T15:24:44Z</time>
      </trkpt>
      <trkpt lat="47.22391" lon="-1.55358">
        <ele>8</ele>
        <time>2016-02-14T15:26:44Z</time>
      </trkpt>
      <trkpt lat="47.22438" lon="-1.55393">
        <ele>9</ele>
        <time>2016-02-14T15:28:44Z</time>
      </trkpt>
      <trkpt lat="47.22481" lon="-1.55454">
        <ele>8</ele>
        <time>2016-02-14T15:30:44Z</time>
      </trkpt>
      <trkpt lat="47.22521" lon="-1.55535">
        <ele>11</ele>
        <time>2016-02-14T15:32:44Z</time>
      </trkpt>
      <trkpt lat="47.22598" lon="-1.55574">
        <ele>10</ele>
        <time>2016-02-14T15:34:44Z</time>
      </trkpt>
      <trkpt lat="47.22684" lon="-1.55559">
        <ele>8</ele>
        <time>2016-02-14T15:36:44Z</time>
      </trkpt>
      <trkpt lat="47.22767" lon="-1.55443">
        <ele>10</ele>
        <time>2016-02-14T15:38:44Z</time>
      </trkpt>
      <trkpt lat="47.22843" lon="-1.55329">
        <ele>9</ele>
        <time>2016-02-14T15:40:44Z</time>
      </trkpt>
      <trkpt lat="47.22835" lon="-1.55298">
        <ele>8</ele>
        <time>2016-02-14T15:42:44Z</time>
      </trkpt>
      <trkpt lat="47.22758" lon="-1.55175">
        <ele>13</ele>
        <time>2016-02-14T15:44:44Z</time>
      </trkpt>
      <trkpt lat="47.22723" lon="-1.55235">
        <ele>12</ele>
        <time>2016-02-14T15:46:44Z</time>
      </trkpt>
      <trkpt lat="47.22725" lon="-1.55287">
        <ele>9</ele>
        <time>2016-02-14T15:48:44Z</time>
      </trkpt>
      <trkpt lat="47.22704" lon="-1.5532">
        <ele>9</ele>
        <time>2016-02-14T15:50:44Z</time>
      </trkpt>
      <trkpt lat="47.22629" lon="-1.55316">
        <ele>12</ele>
        <time>2016-02-14T15:52:44Z</time>
      </trkpt>
      <trkpt lat="47.22461" lon="-1.55286">
        <ele>9</ele>
        <time>2016-02-14T15:54:44Z</time>
      </trkpt>
      <trkpt lat="47.22333" lon="-1.55256">
        <ele>6</ele>
        <time>2016-02-14T15:56:44Z</time>
      </trkpt>
      <trkpt lat="47.21954" lon="-1.54935">
        <ele>24</ele>
        <time>2016-02-14T15:58:44Z</time>
      </trkpt>
      <trkpt lat="47.2196" lon="-1.54879">
        <ele>25</ele>
        <time>2016-02-14T16:00:44Z</time>
      </trkpt>
      <trkpt lat="47.22149" lon="-1.54338">
        <ele>17</ele>
        <time>2016-02-14T16:02:44Z</time>
      </trkpt>
      <trkpt lat="47.22368" lon="-1.53814">
        <ele>14</ele>
        <time>2016-02-14T16:04:44Z</time>
      </trkpt>
      <trkpt lat="47.22407" lon="-1.53832">
        <ele>16</ele>
        <time>2016-02-14T16:06:44Z</time>
      </trkpt>
      <trkpt lat="47.22535" lon="-1.53775">
        <ele>17</ele>
        <time>2016-02-14T16:08:44Z</time>
      </trkpt>
      <trkpt lat="47.22573" lon="-1.53696">
        <ele>16</ele>
        <time>2016-02-14T16:10:44Z</time>
      </trkpt>
      <trkpt lat="47.22659" lon="-1.53464">
        <ele>17</ele>
        <time>2016-02-14T16:12:44Z</time>
      </trkpt>
      <trkpt lat="47.22712" lon="-1.53381">
        <ele>18</ele>
        <time>2016-02-14T16:14:44Z</time>
      </trkpt>
      <trkpt lat="47.22709" lon="-1.53228">
        <ele>16</ele>
        <time>2016-02-14T16:16:44Z</time>
      </trkpt>
      <trkpt lat="47.2251" lon="-1.53074">
        <ele>8</ele>
        <time>2016-02-14T16:18:44Z</time>
      </trkpt>
      <trkpt lat="47.22441" lon="-1.53155">
        <ele>8</ele>
        <time>2016-02-14T16:20:44Z</time>
      </trkpt>
      <trkpt lat="47.22152" lon="-1.53604">
        <ele>9</ele>
        <time>2016-02-14T16:22:44Z</time>
      </trkpt>
      <trkpt lat="47.22065" lon="-1.53814">
        <ele>9</ele>
        <time>2016-02-14T16:24:44Z</time>
      </trkpt>
      <trkpt lat="47.22009" lon="-1.53883">
        <ele>8</ele>
        <time>2016-02-14T16:26:44Z</time>
      </trkpt>
      <trkpt lat="47.21937" lon="-1.54118">
        <ele>11</ele>
        <time>2016-02-14T16:28:44Z</time>
      </trkpt>
      <trkpt lat="47.21904" lon="-1.54125">
        <ele>11</ele>
        <time>2016-02-14T16:30:44Z</time>
      </trkpt>
      <trkpt lat="47.21859" lon="-1.54149">
        <ele>12</ele>
        <time>2016-02-14T16:32:44Z</time>
      </trkpt>
      <trkpt lat="47.21836" lon="-1.54194">
        <ele>12</ele>
        <time>2016-02-14T16:34:44Z</time>
      </trkpt>
      <trkpt lat="47.21859" lon="-1.54292">
        <ele>12</ele>
        <time>2016-02-14T16:36:44Z</time>
      </trkpt>
      <trkpt lat="47.21876" lon="-1.54348">
        <ele>12</ele>
        <time>2016-02-14T16:38:44Z</time>
      </trkpt>
      <trkpt lat="47.21971" lon="-1.5444">
        <ele>18</ele>
        <time>2016-02-14T16:40:44Z</time>
      </trkpt>
      <trkpt lat="47.22043" lon="-1.54297">
        <ele>15</ele>
        <time>2016-02-14T16:42:44Z</time>
      </trkpt>
      <trkpt lat="47.22068" lon="-1.54346">
        <ele>16</ele>
        <time>2016-02-14T16:44:44Z</time>
      </trkpt>
      <trkpt lat="47.22061" lon="-1.54378">
        <ele>17</ele>
        <time>2016-02-14T16:46:44Z</time>
      </trkpt>
      <trkpt lat="47.22039" lon="-1.54434">
        <ele>19</ele>
        <time>2016-02-14T16:48:44Z</time>
      </trkpt>
      <trkpt lat="47.22022" lon="-1.5446">
        <ele>19</ele>
        <time>2016-02-14T16:50:44Z</time>
      </trkpt>
      <trkpt lat="47.22012" lon="-1.54474">
        <ele>20</ele>
        <time>2016-02-14T16:52:44Z</time>
      </trkpt>
      <trkpt lat="47.22002" lon="-1.54503">
        <ele>20</ele>
        <time>2016-02-14T16:54:44Z</time>
      </trkpt>
      <trkpt lat="47.21934" lon="-1.54674">
        <ele>23</ele>
        <time>2016-02-14T16:56:44Z</time>
      </trkpt>
      <trkpt lat="47.21871" lon="-1.54845">
        <ele>24</ele>
        <time>2016-02-14T16:58:44Z</time>
      </trkpt>
      <trkpt lat="47.21872" lon="-1.54866">
        <ele>24</ele>
        <time>2016-02-14T17:00:44Z</time>
      </trkpt>
      <trkpt lat="47.21931" lon="-1.54919">
        <ele>24</ele>
        <time>2016-02-14T17:02:44Z</time>
      </trkpt>
      <trkpt lat="47.21939" lon="-1.54944">
        <ele>23</ele>
        <time>2016-02-14T17:04:44Z</time>
      </trkpt>
      <trkpt lat="47.2191" lon="-1.55015">
        <ele>22</ele>
        <time>2016-02-14T17:06:44Z</time>
      </trkpt>
      <trkpt lat="47.21859" lon="-1.55092">
        <ele>25</ele>
        <time>2016-02-14T17:08:44Z</time>
      </trkpt>
      <trkpt lat="47.21825" lon="-1.55154">
        <ele>24</ele>
        <time>2016-02-14T17:10:44Z</time>
      </trkpt>
      <trkpt lat="47.21815" lon="-1.55158">
        <ele>24</ele>
        <time>2016-02-14T17:12:44Z</time>
      </trkpt>
      <trkpt lat="47.21796" lon="-1.55295">
        <ele>20</ele>
        <time>2016-02-14T17:14:44Z</time>
      </trkpt>
      <trkpt lat="47.21783" lon="-1.5543">
        <ele>15</ele>
        <time>2016-02-14T17:16:44Z</time>
      </trkpt>
      <trkpt lat="47.21776" lon="-1.55556">
        <ele>13</ele>
        <time>2016-02-14T17:18:44Z</time>
      </trkpt>
      <trkpt lat="47.21777" lon="-1.55691">
        <ele>12</ele>
        <time>2016-02-14T17:20:44Z</time>
      </trkpt>
      <trkpt lat="47.21767" lon="-1.55702">
        <ele>13</ele>
        <time>2016-02-14T17:22:44Z</time>
      </trkpt>
      <trkpt lat="47.21676" lon="-1.55674">
        <ele>10</ele>
        <time>2016-02-14T17:24:44Z</time>
      </trkpt>
      <trkpt lat="47.21505" lon="-1.55621">
        <ele>14</ele>
        <time>2016-02-14T17:26:44Z</time>
      </trkpt>
      <trkpt lat="47.21304" lon="-1.55432">
        <ele>11</ele>
        <time>2016-02-14T17:28:44Z</time>
      </trkpt>
      <trkpt lat="47.21237" lon="-1.55269">
        <ele>11</ele>
        <time>2016-02-14T17:30:44Z</time>
      </trkpt>
      <trkpt lat="47.20865" lon="-1.54945">
        <ele>3</ele>
        <time>2016-02-14T17:32:44Z</time>
      </trkpt>
      <trkpt lat="47.21091" lon="-1.54276">
        <ele>6</ele>
        <time>2016-02-14T17:34:44Z</time>
      </trkpt>
      <trkpt lat="47.21209" lon="-1.54242">
        <ele>11</ele>
        <time>2016-02-14T17:36:44Z</time>
      </trkpt>
      <trkpt lat="47.21289" lon="-1.54125">
        <ele>7</ele>
        <time>2016-02-14T17:38:44Z</time>
      </trkpt>
      <trkpt lat="47.2135" lon="-1.53986">
        <ele>8</ele>
        <time>2016-02-14T17:40:44Z</time>
      </trkpt>
      <trkpt lat="47.21308" lon="-1.5366">
        <ele>6</ele>
        <time>2016-02-14T17:42:44Z</time>
      </trkpt>
      <trkpt lat="47.21338" lon="-1.53078">
        <ele>7</ele>
        <time>2016-02-14T17:44:44Z</time>
      </trkpt>
      <trkpt lat="47.21352" lon="-1.5296">
        <ele>7</ele>
        <time>2016-02-14T17:46:44Z</time>
      </trkpt>
      <trkpt lat="47.21078" lon="-1.5286">
        <ele>9</ele>
        <time>2016-02-14T17:48:44Z</time>
      </trkpt>
      <trkpt lat="47.20854" lon="-1.53063">
        <ele>11</ele>
        <time>2016-02-14T17:50:44Z</time>
      </trkpt>
      <trkpt lat="47.20612" lon="-1.52844">
        <ele>8</ele>
        <time>2016-02-14T17:52:44Z</time>
      </trkpt>
      <trkpt lat="47.20673" lon="-1.52677">
        <ele>2</ele>
        <time>2016-02-14T17:54:44Z</time>
      </trkpt>
      <trkpt lat="47.20487" lon="-1.5237">
        <ele>7</ele>
        <time>2016-02-14T17:56:44Z</time>
      </trkpt>
      <trkpt lat="47.20397" lon="-1.52645">
        <ele>13</ele>
        <time>2016-02-14T17:58:44Z</time>
      </trkpt>
      <trkpt lat="47.20269" lon="-1.52914">
        <ele>6</ele>
        <time>2016-02-14T18:00:44Z</time>
      </trkpt>
      <trkpt lat="47.20138" lon="-1.53129">
        <ele>9</ele>
        <time>2016-02-14T18:02:44Z</time>
      </trkpt>
      <trkpt lat="47.20101" lon="-1.53272">
        <ele>6</ele>
        <time>2016-02-14T18:04:44Z</time>
      </trkpt>
      <trkpt lat="47.2005" lon="-1.53404">
        <ele>5</ele>
        <time>2016-02-14T18:06:44Z</time>
      </trkpt>
      <trkpt lat="47.20002" lon="-1.5351">
        <ele>5</ele>
        <time>2016-02-14T18:08:44Z</time>
      </trkpt>
      <trkpt lat="47.19977" lon="-1.53552">
        <ele>7</ele>
        <time>2016-02-14T18:10:44Z</time>
      </trkpt>
      <trkpt lat="47.19937" lon="-1.53728">
        <ele>9</ele>
        <time>2016-02-14T18:12:44Z</time>
      </trkpt>
      <trkpt lat="47.19887" lon="-1.53941">
        <ele>11</ele>
        <time>2016-02-14T18:14:44Z</time>
      </trkpt>
      <trkpt lat="47.19802" lon="-1.54214">
        <ele>6</ele>
        <time>2016-02-14T18:16:44Z</time>
      </trkpt>
      <trkpt lat="47.19804" lon="-1.54242">
        <ele>5</ele>
        <time>2016-02-14T18:18:44Z</time>
      </trkpt>
      <trkpt lat="47.20023" lon="-1.54426">
        <ele>4</ele>
        <time>2016-02-14T18:20:44Z</time>
      </trkpt>
      <trkpt lat="47.20092" lon="-1.54577">
        <ele>12</ele>
        <time>2016-02-14T18:22:44Z</time>
      </trkpt>
      <trkpt lat="47.2016" lon="-1.54746">
        <ele>9</ele>
        <time>2016-02-14T18:24:44Z</time>
      </trkpt>
      <trkpt lat="47.20145" lon="-1.55462">
        <ele>7</ele>
        <time>2016-02-14T18:26:44Z</time>
      </trkpt>
      <trkpt lat="47.20013" lon="-1.55672">
        <ele>8</ele>
        <time>2016-02-14T18:28:44Z</time>
      </trkpt>
      <trkpt lat="47.19999" lon="-1.55692">
        <ele>8</ele>
        <time>2016-02-14T18:30:44Z</time>
      </trkpt>
      <trkpt lat="47.19998" lon="-1.55781">
        <ele>7</ele>
        <time>2016-02-14T18:32:44Z</time>
      </trkpt>
      <trkpt lat="47.20002" lon="-1.55866">
        <ele>6</ele>
        <time>2016-02-14T18:34:44Z</time>
      </trkpt>
      <trkpt lat="47.20009" lon="-1.55939">
        <ele>5</ele>
        <time>2016-02-14T18:36:44Z</time>
      </trkpt>
      <trkpt lat="47.20012" lon="-1.55994">
        <ele>6</ele>
        <time>2016-02-14T18:38:44Z</time>
      </trkpt>
      <trkpt lat="47.20004" lon="-1.56062">
        <ele>6</ele>
        <time>2016-02-14T18:40:44Z</time>
      </trkpt>
      <trkpt lat="47.19995" lon="-1.56103">
        <ele>6</ele>
        <time>2016-02-14T18:42:44Z</time>
      </trkpt>
      <trkpt lat="47.19987" lon="-1.56134">
        <ele>5</ele>
        <time>2016-02-14T18:44:44Z</time>
      </trkpt>
      <trkpt lat="47.19965" lon="-1.56151">
        <ele>3</ele>
        <time>2016-02-14T18:46:44Z</time>
      </trkpt>
      <trkpt lat="47.19574" lon="-1.5622">
        <ele>5</ele>
        <time>2016-02-14T18:48:44Z</time>
      </trkpt>
      <trkpt lat="47.19565" lon="-1.56256">
        <ele>5</ele>
        <time>2016-02-14T18:50:44Z</time>
      </trkpt>
      <trkpt lat="47.19578" lon="-1.5649">
        <ele>9</ele>
        <time>2016-02-14T18:52:44Z</time>
      </trkpt>
      <trkpt lat="47.19577" lon="-1.56597">
        <ele>8</ele>
        <time>2016-02-14T18:54:44Z</time>
      </trkpt>
      <trkpt lat="47.1956" lon="-1.56691">
        <ele>7</ele>
        <time>2016-02-14T18:56:44Z</time>
      </trkpt>
      <trkpt lat="47.19531" lon="-1.56776">
        <ele>6</ele>
        <time>2016-02-14T18:58:44Z</time>
      </trkpt>
      <trkpt lat="47.19489" lon="-1.56859">
        <ele>6</ele>
        <time>2016-02-14T19:00:44Z</time>
      </trkpt>
      <trkpt lat="47.19476" lon="-1.56921">
        <ele>6</ele>
        <time>2016-02-14T19:02:44Z</time>
      </trkpt>
      <trkpt lat="47.19465" lon="-1.57084">
        <ele>6</ele>
        <time>2016-02-14T19:04:44Z</time>
      </trkpt>
      <trkpt lat="47.19447" lon="-1.57213">
        <ele>9</ele>
        <time>2016-02-14T19:06:44Z</time>
      </trkpt>
      <trkpt lat="47.19388" lon="-1.57467">
        <ele>8</ele>
        <time>2016-02-14T19:08:44Z</time>
      </trkpt>
      <trkpt lat="47.19339" lon="-1.57645">
        <ele>6</ele>
        <time>2016-02-14T19:10:44Z</time>
      </trkpt>
      <trkpt lat="47.19254" lon="-1.57943">
        <ele>5</ele>
        <time>2016-02-14T19:12:44Z</time>
      </trkpt>
      <trkpt lat="47.19165" lon="-1.58236">
        <ele>3</ele>
        <time>2016-02-14T19:14:44Z</time>
      </trkpt>
      <trkpt lat="47.1911" lon="-1.58377">
        <ele>5</ele>
        <time>2016-02-14T19:16:44Z</time>
      </trkpt>
      <trkpt lat="47.19115" lon="-1.58416">
        <ele>5</ele>
        <time>2016-02-14T19:18:44Z</time>
      </trkpt>
      <trkpt lat="47.19139" lon="-1.58471">
        <ele>6</ele>
        <time>2016-02-14T19:20:44Z</time>
      </trkpt>
      <trkpt lat="47.19276" lon="-1.58346">
        <ele>6</ele>
        <time>2016-02-14T19:22:44Z</time>
      </trkpt>
      <trkpt lat="47.19373" lon="-1.58437">
        <ele>7</ele>
        <time>2016-02-14T19:24:44Z</time>
      </trkpt>
      <trkpt lat="47.19407" lon="-1.58457">
        <ele>7</ele>
        <time>2016-02-14T19:26:44Z</time>
      </trkpt>
      <trkpt lat="47.19428" lon="-1.58446">
        <ele>6</ele>
        <time>2016-02-14T19:28:44Z</time>
      </trkpt>
      <trkpt lat="47.19443" lon="-1.58415">
        <ele>5</ele>
        <time>2016-02-14T19:30:44Z</time>
      </trkpt>
      <trkpt lat="47.19521" lon="-1.58252">
        <ele>5</ele>
        <time>2016-02-14T19:32:44Z</time>
      </trkpt>
      <trkpt lat="47.19528" lon="-1.58106">
        <ele>3</ele>
        <time>2016-02-14T19:34:44Z</time>
      </trkpt>
      <trkpt lat="47.19513" lon="-1.58008">
        <ele>3</ele>
        <time>2016-02-14T19:36:44Z</time>
      </trkpt>
      <trkpt lat="47.19486" lon="-1.5787">
        <ele>4</ele>
        <time>2016-02-14T19:38:44Z</time>
      </trkpt>
      <trkpt lat="47.1949" lon="-1.57802">
        <ele>5</ele>
        <time>2016-02-14T19:40:44Z</time>
      </trkpt>
      <trkpt lat="47.19586" lon="-1.573">
        <ele>7</ele>
        <time>2016-02-14T19:42:44Z</time>
      </trkpt>
      <trkpt lat="47.19602" lon="-1.57055">
        <ele>7</ele>
        <time>2016-02-14T19:44:44Z</time>
      </trkpt>
      <trkpt lat="47.19622" lon="-1.56684">
        <ele>5</ele>
        <time>2016-02-14T19:46:44Z</time>
      </trkpt>
      <trkpt lat="47.19631" lon="-1.56433">
        <ele>6</ele>
        <time>2016-02-14T19:48:44Z</time>
      </trkpt>
      <trkpt lat="47.19635" lon="-1.5626">
        <ele>4</ele>
        <time>2016-02-14T19:50:44Z</time>
      </trkpt>
      <trkpt lat="47.19644" lon="-1.56235">
        <ele>4</ele>
        <time>2016-02-14T19:52:44Z</time>
      </trkpt>
      <trkpt lat="47.19694" lon="-1.56215">
        <ele>3</ele>
        <time>2016-02-14T19:54:44Z</time>
      </trkpt>
      <trkpt lat="47.19969" lon="-1.56164">
        <ele>4</ele>
        <time>2016-02-14T19:56:44Z</time>
      </trkpt>
      <trkpt lat="47.19987" lon="-1.56175">
        <ele>5</ele>
        <time>2016-02-14T19:58:44Z</time>
      </trkpt>
      <trkpt lat="47.19993" lon="-1.562">
        <ele>6</ele>
        <time>2016-02-14T20:00:44Z</time>
      </trkpt>
      <trkpt lat="47.19982" lon="-1.56248">
        <ele>6</ele>
        <time>2016-02-14T20:02:44Z</time>
      </trkpt>
      <trkpt lat="47.19974" lon="-1.56434">
        <ele>4</ele>
        <time>2016-02-14T20:04:44Z</time>
      </trkpt>
      <trkpt lat="47.19958" lon="-1.5651">
        <ele>3</ele>
        <time>2016-02-14T20:06:44Z</time>
      </trkpt>
      <trkpt lat="47.19958" lon="-1.57043">
        <ele>7</ele>
        <time>2016-02-14T20:08:44Z</time>
      </trkpt>
      <trkpt lat="47.19973" lon="-1.57126">
        <ele>8</ele>
        <time>2016-02-14T20:10:44Z</time>
      </trkpt>
      <trkpt lat="47.19976" lon="-1.5719">
        <ele>7</ele>
        <time>2016-02-14T20:12:44Z</time>
      </trkpt>
      <trkpt lat="47.19981" lon="-1.57334">
        <ele>7</ele>
        <time>2016-02-14T20:14:44Z</time>
      </trkpt>
      <trkpt lat="47.19979" lon="-1.57367">
        <ele>5</ele>
        <time>2016-02-14T20:16:44Z</time>
      </trkpt>
      <trkpt lat="47.19995" lon="-1.57425">
        <ele>2</ele>
        <time>2016-02-14T20:18:44Z</time>
      </trkpt>
      <trkpt lat="47.2043" lon="-1.57112">
        <ele>3</ele>
        <time>2016-02-14T20:20:44Z</time>
      </trkpt>
      <trkpt lat="47.20505" lon="-1.56725">
        <ele>6</ele>
        <time>2016-02-14T20:22:44Z</time>
      </trkpt>
      <trkpt lat="47.20544" lon="-1.56711">
        <ele>7</ele>
        <time>2016-02-14T20:24:44Z</time>
      </trkpt>
      <trkpt lat="47.20587" lon="-1.56623">
        <ele>6</ele>
        <time>2016-02-14T20:26:44Z</time>
      </trkpt>
      <trkpt lat="47.20623" lon="-1.5654">
        <ele>7</ele>
        <time>2016-02-14T20:28:44Z</time>
      </trkpt>
      <trkpt lat="47.20644" lon="-1.56466">
        <ele>7</ele>
        <time>2016-02-14T20:30:44Z</time>
      </trkpt>
      <trkpt lat="47.20651" lon="-1.56427">
        <ele>7</ele>
        <time>2016-02-14T20:32:44Z</time>
      </trkpt>
      <trkpt lat="47.20566" lon="-1.56337">
        <ele>9</ele>
        <time>2016-02-14T20:34:44Z</time>
      </trkpt>
      <trkpt lat="47.20613" lon="-1.55908">
        <ele>9</ele>
        <time>2016-02-14T20:36:44Z</time>
      </trkpt>
      <trkpt lat="47.20796" lon="-1.55947">
        <ele>6</ele>
        <time>2016-02-14T20:38:44Z</time>
      </trkpt>
      <trkpt lat="47.20814" lon="-1.5606">
        <ele>8</ele>
        <time>2016-02-14T20:40:44Z</time>
      </trkpt>
      <trkpt lat="47.20708" lon="-1.56046">
        <ele>13</ele>
        <time>2016-02-14T20:42:44Z</time>
      </trkpt>
      <trkpt lat="47.20689" lon="-1.56277">
        <ele>9</ele>
        <time>2016-02-14T20:44:44Z</time>
      </trkpt>
      <trkpt lat="47.20672" lon="-1.56435">
        <ele>6</ele>
        <time>2016-02-14T20:46:44Z</time>
      </trkpt>
      <trkpt lat="47.20896" lon="-1.56644">
        <ele>5</ele>
        <time>2016-02-14T20:48:44Z</time>
      </trkpt>
      <trkpt lat="47.20917" lon="-1.56637">
        <ele>6</ele>
        <time>2016-02-14T20:50:44Z</time>
      </trkpt>
      <trkpt lat="47.20958" lon="-1.56512">
        <ele>9</ele>
        <time>2016-02-14T20:52:44Z</time>
      </trkpt>
      <trkpt lat="47.21008" lon="-1.56324">
        <ele>12</ele>
        <time>2016-02-14T20:54:44Z</time>
      </trkpt>
      <trkpt lat="47.21008" lon="-1.56257">
        <ele>8</ele>
        <time>2016-02-14T20:56:44Z</time>
      </trkpt>
      <trkpt lat="47.20999" lon="-1.56186">
        <ele>8</ele>
        <time>2016-02-14T20:58:44Z</time>
      </trkpt>
      <trkpt lat="47.20999" lon="-1.56148">
        <ele>8</ele>
        <time>2016-02-14T21:00:44Z</time>
      </trkpt>
      <trkpt lat="47.21064" lon="-1.55964">
        <ele>8</ele>
        <time>2016-02-14T21:02:44Z</time>
      </trkpt>
      <trkpt lat="47.21141" lon="-1.55872">
        <ele>8</ele>
        <time>2016-02-14T21:04:44Z</time>
      </trkpt>
      <trkpt lat="47.21185" lon="-1.55881">
        <ele>8</ele>
        <time>2016-02-14T21:06:44Z</time>
      </trkpt>
      <trkpt lat="47.2121" lon="-1.55935">
        <ele>12</ele>
        <time>2016-02-14T21:08:44Z</time>
      </trkpt>
      <trkpt lat="47.21269" lon="-1.55916">
        <ele>14</ele>
        <time>2016-02-14T21:10:44Z</time>
      </trkpt>
      <trkpt lat="47.2142" lon="-1.55865">
        <ele>19</ele>
        <time>2016-02-14T21:12:44Z</time>
      </trkpt>
      <trkpt lat="47.2145" lon="-1.55851">
        <ele>19</ele>
        <time>2016-02-14T21:14:44Z</time>
      </trkpt>
      <trkpt lat="47.21482" lon="-1.55826">
        <ele>19</ele>
        <time>2016-02-14T21:16:44Z</time>
      </trkpt>
      <trkpt lat="47.21595" lon="-1.55835">
        <ele>21</ele>
        <time>2016-02-14T21:18:44Z</time>
      </trkpt>
      <trkpt lat="47.21707" lon="-1.55835">
        <ele>22</ele>
        <time>2016-02-14T21:20:44Z</time>
      </trkpt>
      <trkpt lat="47.21767" lon="-1.55777">
        <ele>18</ele>
        <time>2016-02-14T21:22:44Z</time>
      </trkpt>
      <trkpt lat="47.21778" lon="-1.55726">
        <ele>14</ele>
        <time>2016-02-14T21:24:44Z</time>
      </trkpt>
      <trkpt lat="47.21843" lon="-1.55717">
        <ele>12</ele>
        <time>2016-02-14T21:26:44Z</time>
      </trkpt>
      <trkpt lat="47.21899" lon="-1.55683">
        <ele>13</ele>
        <time>2016-02-14T21:28:44Z</time>
      </trkpt>
      <trkpt lat="47.21956" lon="-1.5559">
        <ele>12</ele>
        <time>2016-02-14T21:30:44Z</time>
      </trkpt>
      <trkpt lat="47.21994" lon="-1.55513">
        <ele>12</ele>
        <time>2016-02-14T21:32:44Z</time>
      </trkpt>
      <trkpt lat="47.22012" lon="-1.55474">
        <ele>12</ele>
        <time>2016-02-14T21:34:44Z</time>
      </trkpt>
      <trkpt lat="47.21943" lon="-1.55423">
        <ele>16</ele>
        <time>2016-02-14T21:36:44Z</time>
      </trkpt>
      <trkpt lat="47.21829" lon="-1.55331">
        <ele>19</ele>
        <time>2016-02-14T21:38:44Z</time>
      </trkpt>
      <trkpt lat="47.21497" lon="-1.55047">
        <ele>12</ele>
        <time>2016-02-14T21:40:44Z</time>
      </trkpt>
      <trkpt lat="47.21438" lon="-1.55031">
        <ele>10</ele>
        <time>2016-02-14T21:42:44Z</time>
      </trkpt>
      <trkpt lat="47.21372" lon="-1.55146">
        <ele>11</ele>
        <time>2016-02-14T21:44:44Z</time>
      </trkpt>
      <trkpt lat="47.21283" lon="-1.55327">
        <ele>10</ele>
        <time>2016-02-14T21:46:44Z</time>
      </trkpt>
      <trkpt lat="47.21235" lon="-1.55269">
        <ele>11</ele>
        <time>2016-02-14T21:48:44Z</time>
      </trkpt>
      <trkpt lat="47.20863" lon="-1.54947">
        <ele>3</ele>
        <time>2016-02-14T21:50:44Z</time>
      </trkpt>
      <trkpt lat="47.21088" lon="-1.54277">
        <ele>6</ele>
        <time>2016-02-14T21:52:44Z</time>
      </trkpt>
      <trkpt lat="47.21209" lon="-1.54247">
        <ele>11</ele>
        <time>2016-02-14T21:54:44Z</time>
      </trkpt>
      <trkpt lat="47.213" lon="-1.54099">
        <ele>6</ele>
        <time>2016-02-14T21:56:44Z</time>
      </trkpt>
      <trkpt lat="47.21353" lon="-1.53989">
        <ele>8</ele>
        <time>2016-02-14T21:58:44Z</time>
      </trkpt>
      <trkpt lat="47.21308" lon="-1.53651">
        <ele>6</ele>
        <time>2016-02-14T22:00:44Z</time>
      </trkpt>
      <trkpt lat="47.21324" lon="-1.53307">
        <ele>8</ele>
        <time>2016-02-14T22:02:44Z</time>
      </trkpt>
      <trkpt lat="47.21337" lon="-1.5308">
        <ele>7</ele>
        <time>2016-02-14T22:04:44Z</time>
      </trkpt>
      <trkpt lat="47.21355" lon="-1.5296">
        <ele>7</ele>
        <time>2016-02-14T22:06:44Z</time>
      </trkpt>
      <trkpt lat="47.2115" lon="-1.52891">
        <ele>6</ele>
        <time>2016-02-14T22:08:44Z</time>
      </trkpt>
      <trkpt lat="47.21083" lon="-1.52857">
        <ele>9</ele>
        <time>2016-02-14T22:10:44Z</time>
      </trkpt>
      <trkpt lat="47.20853" lon="-1.53065">
        <ele>11</ele>
        <time>2016-02-14T22:12:44Z</time>
      </trkpt>
      <trkpt lat="47.20611" lon="-1.52844">
        <ele>8</ele>
        <time>2016-02-14T22:14:44Z</time>
      </trkpt>
      <trkpt lat="47.20672" lon="-1.52681">
        <ele>2</ele>
        <time>2016-02-14T22:16:44Z</time>
      </trkpt>
      <trkpt lat="47.20544" lon="-1.52455">
        <ele>2</ele>
        <time>2016-02-14T22:18:44Z</time>
      </trkpt>
      <trkpt lat="47.20488" lon="-1.52368">
        <ele>7</ele>
        <time>2016-02-14T22:20:44Z</time>
      </trkpt>
      <trkpt lat="47.20398" lon="-1.52644">
        <ele>13</ele>
        <time>2016-02-14T22:22:44Z</time>
      </trkpt>
      <trkpt lat="47.2027" lon="-1.52917">
        <ele>6</ele>
        <time>2016-02-14T22:24:44Z</time>
      </trkpt>
      <trkpt lat="47.20137" lon="-1.53129">
        <ele>9</ele>
        <time>2016-02-14T22:26:44Z</time>
      </trkpt>
      <trkpt lat="47.20102" lon="-1.53269">
        <ele>6</ele>
        <time>2016-02-14T22:28:44Z</time>
      </trkpt>
      <trkpt lat="47.2005" lon="-1.53406">
        <ele>5</ele>
        <time>2016-02-14T22:30:44Z</time>
      </trkpt>
      <trkpt lat="47.20004" lon="-1.53511">
        <ele>5</ele>
        <time>2016-02-14T22:32:44Z</time>
      </trkpt>
      <trkpt lat="47.19976" lon="-1.53553">
        <ele>7</ele>
        <time>2016-02-14T22:34:44Z</time>
      </trkpt>
      <trkpt lat="47.1994" lon="-1.53728">
        <ele>8</ele>
        <time>2016-02-14T22:36:44Z</time>
      </trkpt>
      <trkpt lat="47.19887" lon="-1.53941">
        <ele>11</ele>
        <time>2016-02-14T22:38:44Z</time>
      </trkpt>
      <trkpt lat="47.198" lon="-1.54213">
        <ele>7</ele>
        <time>2016-02-14T22:40:44Z</time>
      </trkpt>
      <trkpt lat="47.19804" lon="-1.54241">
        <ele>5</ele>
        <time>2016-02-14T22:42:44Z</time>
      </trkpt>
      <trkpt lat="47.20023" lon="-1.54426">
        <ele>4</ele>
        <time>2016-02-14T22:44:44Z</time>
      </trkpt>
      <trkpt lat="47.20104" lon="-1.54599">
        <ele>11</ele>
        <time>2016-02-14T22:46:44Z</time>
      </trkpt>
      <trkpt lat="47.20163" lon="-1.54754">
        <ele>9</ele>
        <time>2016-02-14T22:48:44Z</time>
      </trkpt>
      <trkpt lat="47.20146" lon="-1.55464">
        <ele>7</ele>
        <time>2016-02-14T22:50:44Z</time>
      </trkpt>
      <trkpt lat="47.20012" lon="-1.55675">
        <ele>8</ele>
        <time>2016-02-14T22:52:44Z</time>
      </trkpt>
      <trkpt lat="47.20001" lon="-1.55692">
        <ele>8</ele>
        <time>2016-02-14T22:54:44Z</time>
      </trkpt>
      <trkpt lat="47.19997" lon="-1.55781">
        <ele>7</ele>
        <time>2016-02-14T22:56:44Z</time>
      </trkpt>
      <trkpt lat="47.20001" lon="-1.55867">
        <ele>6</ele>
        <time>2016-02-14T22:58:44Z</time>
      </trkpt>
      <trkpt lat="47.20013" lon="-1.56032">
        <ele>6</ele>
        <time>2016-02-14T23:00:44Z</time>
      </trkpt>
      <trkpt lat="47.20006" lon="-1.56108">
        <ele>6</ele>
        <time>2016-02-14T23:02:44Z</time>
      </trkpt>
      <trkpt lat="47.20003" lon="-1.56152">
        <ele>6</ele>
        <time>2016-02-14T23:04:44Z</time>
      </trkpt>
      <trkpt lat="47.19998" lon="-1.56197">
        <ele>6</ele>
        <time>2016-02-14T23:06:44Z</time>
      </trkpt>
      <trkpt lat="47.19984" lon="-1.56248">
        <ele>6</ele>
        <time>2016-02-14T23:08:44Z</time>
      </trkpt>
      <trkpt lat="47.19974" lon="-1.56435">
        <ele>4</ele>
        <time>2016-02-14T23:10:44Z</time>
      </trkpt>
      <trkpt lat="47.19959" lon="-1.5651">
        <ele>3</ele>
        <time>2016-02-14T23:12:44Z</time>
      </trkpt>
      <trkpt lat="47.19958" lon="-1.57042">
        <ele>7</ele>
        <time>2016-02-14T23:14:44Z</time>
      </trkpt>
      <trkpt lat="47.19973" lon="-1.57124">
        <ele>8</ele>
        <time>2016-02-14T23:16:44Z</time>
      </trkpt>
      <trkpt lat="47.19977" lon="-1.57191">
        <ele>7</ele>
        <time>2016-02-14T23:18:44Z</time>
      </trkpt>
      <trkpt lat="47.1998" lon="-1.57331">
        <ele>7</ele>
        <time>2016-02-14T23:20:44Z</time>
      </trkpt>
      <trkpt lat="47.19979" lon="-1.57366">
        <ele>5</ele>
        <time>2016-02-14T23:22:44Z</time>
      </trkpt>
      <trkpt lat="47.19997" lon="-1.57424">
        <ele>2</ele>
        <time>2016-02-14T23:24:44Z</time>
      </trkpt>
      <trkpt lat="47.20429" lon="-1.57112">
        <ele>3</ele>
        <time>2016-02-14T23:26:44Z</time>
      </trkpt>
      <trkpt lat="47.20503" lon="-1.56727">
        <ele>6</ele>
        <time>2016-02-14T23:28:44Z</time>
      </trkpt>
      <trkpt lat="47.20543" lon="-1.5671">
        <ele>7</ele>
        <time>2016-02-14T23:30:44Z</time>
      </trkpt>
      <trkpt lat="47.20587" lon="-1.56621">
        <ele>6</ele>
        <time>2016-02-14T23:32:44Z</time>
      </trkpt>
      <trkpt lat="47.20624" lon="-1.56538">
        <ele>7</ele>
        <time>2016-02-14T23:34:44Z</time>
      </trkpt>
      <trkpt lat="47.2065" lon="-1.56429">
        <ele>7</ele>
        <time>2016-02-14T23:36:44Z</time>
      </trkpt>
      <trkpt lat="47.20565" lon="-1.56336">
        <ele>9</ele>
        <time>2016-02-14T23:38:44Z</time>
      </trkpt>
      <trkpt lat="47.20612" lon="-1.55907">
        <ele>9</ele>
        <time>2016-02-14T23:40:44Z</time>
      </trkpt>
      <trkpt lat="47.20795" lon="-1.5595">
        <ele>6</ele>
        <time>2016-02-14T23:42:44Z</time>
      </trkpt>
      <trkpt lat="47.20812" lon="-1.56058">
        <ele>8</ele>
        <time>2016-02-14T23:44:44Z</time>
      </trkpt>
      <trkpt lat="47.20708" lon="-1.56045">
        <ele>13</ele>
        <time>2016-02-14T23:46:44Z</time>
      </trkpt>
      <trkpt lat="47.20687" lon="-1.56258">
        <ele>9</ele>
        <time>2016-02-14T23:48:44Z</time>
      </trkpt>
      <trkpt lat="47.20673" lon="-1.56438">
        <ele>6</ele>
        <time>2016-02-14T23:50:44Z</time>
      </trkpt>
      <trkpt lat="47.20896" lon="-1.56644">
        <ele>5</ele>
        <time>2016-02-14T23:52:44Z</time>
      </trkpt>
      <trkpt lat="47.20916" lon="-1.56636">
        <ele>6</ele>
        <time>2016-02-14T23:54:44Z</time>
      </trkpt>
      <trkpt lat="47.20977" lon="-1.56448">
        <ele>10</ele>
        <time>2016-02-14T23:56:44Z</time>
      </trkpt>
      <trkpt lat="47.21008" lon="-1.56327">
        <ele>12</ele>
        <time>2016-02-14T23:58:44Z</time>
      </trkpt>
      <trkpt lat="47.21009" lon="-1.56257">
        <ele>8</ele>
        <time>2016-02-15T00:00:44Z</time>
      </trkpt>
      <trkpt lat="47.21001" lon="-1.56186">
        <ele>8</ele>
        <time>2016-02-15T00:02:44Z</time>
      </trkpt>
      <trkpt lat="47.20999" lon="-1.56148">
        <ele>8</ele>
        <time>2016-02-15T00:04:44Z</time>
      </trkpt>
      <trkpt lat="47.21064" lon="-1.55959">
        <ele>9</ele>
        <time>2016-02-15T00:06:44Z</time>
      </trkpt>
      <trkpt lat="47.21138" lon="-1.55872">
        <ele>8</ele>
        <time>2016-02-15T00:08:44Z</time>
      </trkpt>
      <trkpt lat="47.21185" lon="-1.55879">
        <ele>8</ele>
        <time>2016-02-15T00:10:44Z</time>
      </trkpt>
      <trkpt lat="47.21209" lon="-1.55934">
        <ele>11</ele>
        <time>2016-02-15T00:12:44Z</time>
      </trkpt>
      <trkpt lat="47.21267" lon="-1.55917">
        <ele>14</ele>
        <time>2016-02-15T00:14:44Z</time>
      </trkpt>
      <trkpt lat="47.21351" lon="-1.55889">
        <ele>17</ele>
        <time>2016-02-15T00:16:44Z</time>
      </trkpt>
      <trkpt lat="47.2142" lon="-1.55865">
        <ele>19</ele>
        <time>2016-02-15T00:18:44Z</time>
      </trkpt>
      <trkpt lat="47.2145" lon="-1.55852">
        <ele>19</ele>
        <time>2016-02-15T00:20:44Z</time>
      </trkpt>
      <trkpt lat="47.21482" lon="-1.55825">
        <ele>19</ele>
        <time>2016-02-15T00:22:44Z</time>
      </trkpt>
      <trkpt lat="47.21594" lon="-1.55835">
        <ele>21</ele>
        <time>2016-02-15T00:24:44Z</time>
      </trkpt>
      <trkpt lat="47.21706" lon="-1.55841">
        <ele>22</ele>
        <time>2016-02-15T00:26:44Z</time>
      </trkpt>
      <trkpt lat="47.21768" lon="-1.55777">
        <ele>18</ele>
        <time>2016-02-15T00:28:44Z</time>
      </trkpt>
      <trkpt lat="47.21778" lon="-1.55728">
        <ele>14</ele>
        <time>2016-02-15T00:30:44Z</time>
      </trkpt>
      <trkpt lat="47.2184" lon="-1.55713">
        <ele>12</ele>
        <time>2016-02-15T00:32:44Z</time>
      </trkpt>
      <trkpt lat="47.21902" lon="-1.5568">
        <ele>13</ele>
        <time>2016-02-15T00:34:44Z</time>
      </trkpt>
      <trkpt lat="47.21952" lon="-1.55588">
        <ele>12</ele>
        <time>2016-02-15T00:36:44Z</time>
      </trkpt>
      <trkpt lat="47.22014" lon="-1.55472">
        <ele>13</ele>
        <time>2016-02-15T00:38:44Z</time>
      </trkpt>
      <trkpt lat="47.21907" lon="-1.55391">
        <ele>17</ele>
        <time>2016-02-15T00:40:44Z</time>
      </trkpt>
      <trkpt lat="47.21832" lon="-1.55333">
        <ele>19</ele>
        <time>2016-02-15T00:42:44Z</time>
      </trkpt>
      <trkpt lat="47.21628" lon="-1.55157">
        <ele>19</ele>
        <time>2016-02-15T00:44:44Z</time>
      </trkpt>
      <trkpt lat="47.21494" lon="-1.55043">
        <ele>11</ele>
        <time>2016-02-15T00:46:44Z</time>
      </trkpt>
      <trkpt lat="47.21436" lon="-1.55032">
        <ele>10</ele>
        <time>2016-02-15T00:48:44Z</time>
      </trkpt>
      <trkpt lat="47.21283" lon="-1.55324">
        <ele>11</ele>
        <time>2016-02-15T00:50:44Z</time>
      </trkpt>
      <trkpt lat="47.21232" lon="-1.5527">
        <ele>11</ele>
        <time>2016-02-15T00:52:44Z</time>
      </trkpt>
      <trkpt lat="47.20866" lon="-1.54955">
        <ele>3</ele>
        <time>2016-02-15T00:54:44Z</time>
      </trkpt>
      <trkpt lat="47.20989" lon="-1.54526">
        <ele>11</ele>
        <time>2016-02-15T00:56:44Z</time>
      </trkpt>
      <trkpt lat="47.21095" lon="-1.54239">
        <ele>6</ele>
        <time>2016-02-15T00:58:44Z</time>
      </trkpt>
      <trkpt lat="47.21117" lon="-1.54204">
        <ele>9</ele>
        <time>2016-02-15T01:00:44Z</time>
      </trkpt>
      <trkpt lat="47.21175" lon="-1.54037">
        <ele>9</ele>
        <time>2016-02-15T01:02:44Z</time>
      </trkpt>
      <trkpt lat="47.2123" lon="-1.5409">
        <ele>8</ele>
        <time>2016-02-15T01:04:44Z</time>
      </trkpt>
      <trkpt lat="47.21449" lon="-1.54367">
        <ele>9</ele>
        <time>2016-02-15T01:06:44Z</time>
      </trkpt>
      <trkpt lat="47.21538" lon="-1.54481">
        <ele>10</ele>
        <time>2016-02-15T01:08:44Z</time>
      </trkpt>
      <trkpt lat="47.21506" lon="-1.54541">
        <ele>11</ele>
        <time>2016-02-15T01:10:44Z</time>
      </trkpt>
      <trkpt lat="47.21451" lon="-1.54494">
        <ele>13</ele>
        <time>2016-02-15T01:12:44Z</time>
      </trkpt>
      <trkpt lat="47.21417" lon="-1.54464">
        <ele>13</ele>
        <time>2016-02-15T01:14:44Z</time>
      </trkpt>
    </trkseg>
  </trk>
</gpx>